[
    { "Code": "BKK", "ISO": "TH-10", "Name": "กรุงเทพมหานคร" },
    { "Code": "SPK", "ISO": "TH-11", "Name": "จังหวัดสมุทรปราการ" },
    { "Code": "NBI", "ISO": "TH-12", "Name": "จังหวัดนนทบุรี" },
    { "Code": "PTE", "ISO": "TH-13", "Name": "จังหวัดปทุมธานี" },
    { "Code": "AYA", "ISO": "TH-14", "Name": "จังหวัดพระนครศรีอยุธยา" },
    { "Code": "ATG", "ISO": "TH-15", "Name": "จังหวัดอ่างทอง" },
    { "Code": "LRI", "ISO": "TH-16", "Name": "จังหวัดลพบุรี" },
    { "Code": "SBR", "ISO": "TH-17", "Name": "จังหวัดสิงห์บุรี" },
    { "Code": "CNT", "ISO": "TH-18", "Name": "จังหวัดชัยนาท" },
    { "Code": "SRI", "ISO": "TH-19", "Name": "จังหวัดสระบุรี" },
    { "Code": "CBI", "ISO": "TH-20", "Name": "จังหวัดชลบุรี" },
    { "Code": "RYG", "ISO": "TH-21", "Name": "จังหวัดระยอง" },
    { "Code": "CTI", "ISO": "TH-22", "Name": "จังหวัดจันทบุรี" },
    { "Code": "SRT", "ISO": "TH-23", "Name": "จังหวัดตราด" },
    { "Code": "CCO", "ISO": "TH-24", "Name": "จังหวัดฉะเชิงเทรา" },
    { "Code": "PRI", "ISO": "TH-25", "Name": "จังหวัดปราจีนบุรี" },
    { "Code": "NYK", "ISO": "TH-26", "Name": "จังหวัดนครนายก" },
    { "Code": "SKW", "ISO": "TH-27", "Name": "จังหวัดสระแก้ว" },
    { "Code": "NMA", "ISO": "TH-30", "Name": "จังหวัดนครราชสีมา" },
    { "Code": "BRM", "ISO": "TH-31", "Name": "จังหวัดบุรีรัมย์" },
    { "Code": "SRN", "ISO": "TH-32", "Name": "จังหวัดสุรินทร์" },
    { "Code": "SSK", "ISO": "TH-33", "Name": "จังหวัดศรีสะเกษ" },
    { "Code": "UBN", "ISO": "TH-34", "Name": "จังหวัดอุบลราชธานี" },
    { "Code": "YST", "ISO": "TH-35", "Name": "จังหวัดยโสธร" },
    { "Code": "CPM", "ISO": "TH-36", "Name": "จังหวัดชัยภูมิ" },
    { "Code": "ACR", "ISO": "TH-37", "Name": "จังหวัดอำนาจเจริญ" },
    { "Code": null, "ISO": "TH-38", "Name": "จังหวัดบึงกาฬ" },
    { "Code": "NBP", "ISO": "TH-39", "Name": "จังหวัดหนองบัวลำภู" },
    { "Code": "KKN", "ISO": "TH-40", "Name": "จังหวัดขอนแก่น" },
    { "Code": "UDN", "ISO": "TH-41", "Name": "จังหวัดอุดรธานี" },
    { "Code": "LEI", "ISO": "TH-42", "Name": "จังหวัดเลย" },
    { "Code": "NKI", "ISO": "TH-43", "Name": "จังหวัดหนองคาย" },
    { "Code": "MKM", "ISO": "TH-44", "Name": "จังหวัดมหาสารคาม" },
    { "Code": "RET", "ISO": "TH-45", "Name": "จังหวัดร้อยเอ็ด" },
    { "Code": "KSN", "ISO": "TH-46", "Name": "จังหวัดกาฬสินธุ์" },
    { "Code": "SNK", "ISO": "TH-47", "Name": "จังหวัดสกลนคร" },
    { "Code": "NPM", "ISO": "TH-48", "Name": "จังหวัดนครพนม" },
    { "Code": "MDH", "ISO": "TH-49", "Name": "จังหวัดมุกดาหาร" },
    {
        "Code": "CMI",
        "ISO": "TH-50",
        "Name": "จังหวัดเชียงใหม่",
        "Districts": [
            {
                "ID": 5001,
                "Name": "เมืองเชียงใหม่",
                "SubDistricts": [
                    { "ID": 500101, "Name": "ศรีภูมิ", "ZipCode": "50200" },
                    { "ID": 500102, "Name": "พระสิงห์", "ZipCode": "50200" },
                    { "ID": 500103, "Name": "หายยา", "ZipCode": "50100" },
                    { "ID": 500104, "Name": "ช้างม่อย", "ZipCode": "50300" },
                    { "ID": 500105, "Name": "ช้างคลาน", "ZipCode": "50100" },
                    { "ID": 500106, "Name": "วัดเกต", "ZipCode": "50000" },
                    { "ID": 500107, "Name": "ช้างเผือก", "ZipCode": "50300" },
                    { "ID": 500108, "Name": "สุเทพ", "ZipCode": "50200" },
                    { "ID": 500109, "Name": "แม่เหียะ", "ZipCode": "50100" },
                    { "ID": 500110, "Name": "ป่าแดด", "ZipCode": "50100" },
                    { "ID": 500111, "Name": "หนองหอย", "ZipCode": "50000" },
                    { "ID": 500112, "Name": "ท่าศาลา", "ZipCode": "50000" },
                    { "ID": 500113, "Name": "หนองป่าครั่ง", "ZipCode": "50000" },
                    { "ID": 500114, "Name": "ฟ้าฮ่าม", "ZipCode": "50000" },
                    { "ID": 500115, "Name": "ป่าตัน", "ZipCode": "50300" },
                    { "ID": 500116, "Name": "สันผีเสื้อ", "ZipCode": "50300" },
                ]
            },
            {
                "ID": 5002,
                "Name": "จอมทอง",
                "SubDistricts": [
                    { "ID": 500203, "Name": "บ้านหลวง", "ZipCode": "50160" },
                    { "ID": 500204, "Name": "ข่วงเปา", "ZipCode": "50160" },
                    { "ID": 500205, "Name": "สบเตี๊ยะ", "ZipCode": "50160" },
                    { "ID": 500206, "Name": "บ้านแปะ", "ZipCode": "50240" },
                    { "ID": 500207, "Name": "ดอยแก้ว", "ZipCode": "50160" },
                    { "ID": 500209, "Name": "แม่สอย", "ZipCode": "50240" },
                ]
            },
            {
                "ID": 5003,
                "Name": "แม่แจ่ม",
                "SubDistricts": [
                    { "ID": 500301, "Name": "ช่างเคิ่ง", "ZipCode": "50270" },
                    { "ID": 500302, "Name": "ท่าผา", "ZipCode": "50270" },
                    { "ID": 500303, "Name": "บ้านทับ", "ZipCode": "50270" },
                    { "ID": 500304, "Name": "แม่ศึก", "ZipCode": "50270" },
                    { "ID": 500305, "Name": "แม่นาจร", "ZipCode": "50270" },
                    { "ID": 500306, "Name": "บ้านจันทร์", "ZipCode": "58130" },
                    { "ID": 500307, "Name": "ปางหินฝน", "ZipCode": "50270" },
                    { "ID": 500308, "Name": "กองแขก", "ZipCode": "50270" },
                    { "ID": 500309, "Name": "แม่แดด", "ZipCode": "58130" },
                    { "ID": 500310, "Name": "แจ่มหลวง", "ZipCode": "58130" },
                ]
            },
            {
                "ID": 5004,
                "Name": "เชียงดาว",
                "SubDistricts": [
                    { "ID": 500401, "Name": "เชียงดาว", "ZipCode": "50170" },
                    { "ID": 500402, "Name": "เมืองนะ", "ZipCode": "50170" },
                    { "ID": 500403, "Name": "เมืองงาย", "ZipCode": "50170" },
                    { "ID": 500404, "Name": "แม่นะ", "ZipCode": "50170" },
                    { "ID": 500405, "Name": "เมืองคอง", "ZipCode": "50170" },
                    { "ID": 500406, "Name": "ปิงโค้ง", "ZipCode": "50170" },
                    { "ID": 500407, "Name": "ทุ่งข้าวพวง", "ZipCode": "50170" },
                ]
            },
            {
                "ID": 5005,
                "Name": "ดอยสะเก็ด",
                "SubDistricts": [
                    { "ID": 500501, "Name": "เชิงดอย", "ZipCode": "50220" },
                    { "ID": 500502, "Name": "สันปูเลย", "ZipCode": "50220" },
                    { "ID": 500503, "Name": "ลวงเหนือ", "ZipCode": "50220" },
                    { "ID": 500504, "Name": "ป่าป้อง", "ZipCode": "50220" },
                    { "ID": 500505, "Name": "สง่าบ้าน", "ZipCode": "50220" },
                    { "ID": 500506, "Name": "ป่าลาน", "ZipCode": "50220" },
                    { "ID": 500507, "Name": "ตลาดขวัญ", "ZipCode": "50220" },
                    { "ID": 500508, "Name": "สำราญราษฎร์", "ZipCode": "50220" },
                    { "ID": 500509, "Name": "แม่คือ", "ZipCode": "50220" },
                    { "ID": 500510, "Name": "ตลาดใหญ่", "ZipCode": "50220" },
                    { "ID": 500511, "Name": "แม่ฮ้อยเงิน", "ZipCode": "50220" },
                    { "ID": 500512, "Name": "แม่โป่ง", "ZipCode": "50220" },
                    { "ID": 500513, "Name": "ป่าเมี่ยง", "ZipCode": "50220" },
                    { "ID": 500514, "Name": "เทพเสด็จ", "ZipCode": "50220" },
                ]
            },
            {
                "ID": 5006,
                "Name": "แม่แตง",
                "SubDistricts": [
                    { "ID": 500601, "Name": "สันมหาพน", "ZipCode": "50150" },
                    { "ID": 500602, "Name": "แม่แตง", "ZipCode": "50150" },
                    { "ID": 500603, "Name": "ขี้เหล็ก", "ZipCode": "50150" },
                    { "ID": 500604, "Name": "ช่อแล", "ZipCode": "50150" },
                    { "ID": 500605, "Name": "แม่หอพระ", "ZipCode": "50150" },
                    { "ID": 500606, "Name": "สบเปิง", "ZipCode": "50150" },
                    { "ID": 500607, "Name": "บ้านเป้า", "ZipCode": "50150" },
                    { "ID": 500608, "Name": "สันป่ายาง", "ZipCode": "50330" },
                    { "ID": 500609, "Name": "ป่าแป๋", "ZipCode": "50150" },
                    { "ID": 500610, "Name": "เมืองก๋าย", "ZipCode": "50150" },
                    { "ID": 500611, "Name": "บ้านช้าง", "ZipCode": "50150" },
                    { "ID": 500612, "Name": "กื้ดช้าง", "ZipCode": "50150" },
                    { "ID": 500613, "Name": "อินทขิล", "ZipCode": "50150" },
                    { "ID": 500614, "Name": "สมก๋าย", "ZipCode": "50150" },
                ]
            },
            {
                "ID": 5007,
                "Name": "แม่ริม",
                "SubDistricts": [
                    { "ID": 500701, "Name": "ริมใต้", "ZipCode": "50180" },
                    { "ID": 500702, "Name": "ริมเหนือ", "ZipCode": "50180" },
                    { "ID": 500703, "Name": "สันโป่ง", "ZipCode": "50180" },
                    { "ID": 500704, "Name": "ขี้เหล็ก", "ZipCode": "50180" },
                    { "ID": 500705, "Name": "สะลวง", "ZipCode": "50330" },
                    { "ID": 500706, "Name": "ห้วยทราย", "ZipCode": "50180" },
                    { "ID": 500707, "Name": "แม่แรม", "ZipCode": "50180" },
                    { "ID": 500708, "Name": "โป่งแยง", "ZipCode": "50180" },
                    { "ID": 500709, "Name": "แม่สา", "ZipCode": "50180" },
                    { "ID": 500710, "Name": "ดอนแก้ว", "ZipCode": "50180" },
                    { "ID": 500711, "Name": "เหมืองแก้ว", "ZipCode": "50180" },
                ]
            },
            {
                "ID": 5008,
                "Name": "สะเมิง",
                "SubDistricts": [
                    { "ID": 500801, "Name": "สะเมิงใต้", "ZipCode": "50250" },
                    { "ID": 500802, "Name": "สะเมิงเหนือ", "ZipCode": "50250" },
                    { "ID": 500803, "Name": "แม่สาบ", "ZipCode": "50250" },
                    { "ID": 500804, "Name": "บ่อแก้ว", "ZipCode": "50250" },
                    { "ID": 500805, "Name": "ยั้งเมิน", "ZipCode": "50250" },
                ]
            },
            {
                "ID": 5009,
                "Name": "ฝาง",
                "SubDistricts": [
                    { "ID": 500901, "Name": "เวียง", "ZipCode": "50110" },
                    { "ID": 500903, "Name": "ม่อนปิ่น", "ZipCode": "50110" },
                    { "ID": 500904, "Name": "แม่งอน", "ZipCode": "50320" },
                    { "ID": 500905, "Name": "แม่สูน", "ZipCode": "50110" },
                    { "ID": 500906, "Name": "สันทราย", "ZipCode": "50110" },
                    { "ID": 500910, "Name": "แม่คะ", "ZipCode": "50110" },
                    { "ID": 500911, "Name": "แม่ข่า", "ZipCode": "50320" },
                    { "ID": 500912, "Name": "โป่งน้ำร้อน", "ZipCode": "50110" },
                ]
            },
            {
                "ID": 5010,
                "Name": "แม่อาย",
                "SubDistricts": [
                    { "ID": 501001, "Name": "แม่อาย", "ZipCode": "50280" },
                    { "ID": 501002, "Name": "แม่สาว", "ZipCode": "50280" },
                    { "ID": 501003, "Name": "สันต้นหมื้อ", "ZipCode": "50280" },
                    { "ID": 501004, "Name": "แม่นาวาง", "ZipCode": "50280" },
                    { "ID": 501005, "Name": "ท่าตอน", "ZipCode": "50280" },
                    { "ID": 501006, "Name": "บ้านหลวง", "ZipCode": "50280" },
                    { "ID": 501007, "Name": "มะลิกา", "ZipCode": "50280" },
                ]
            },
            {
                "ID": 5011,
                "Name": "พร้าว",
                "SubDistricts": [
                    { "ID": 501101, "Name": "เวียง", "ZipCode": "50190" },
                    { "ID": 501102, "Name": "ทุ่งหลวง", "ZipCode": "50190" },
                    { "ID": 501103, "Name": "ป่าตุ้ม", "ZipCode": "50190" },
                    { "ID": 501104, "Name": "ป่าไหน่", "ZipCode": "50190" },
                    { "ID": 501105, "Name": "สันทราย", "ZipCode": "50190" },
                    { "ID": 501106, "Name": "บ้านโป่ง", "ZipCode": "50190" },
                    { "ID": 501107, "Name": "น้ำแพร่", "ZipCode": "50190" },
                    { "ID": 501108, "Name": "เขื่อนผาก", "ZipCode": "50190" },
                    { "ID": 501109, "Name": "แม่แวน", "ZipCode": "50190" },
                    { "ID": 501110, "Name": "แม่ปั๋ง", "ZipCode": "50190" },
                    { "ID": 501111, "Name": "โหล่งขอด", "ZipCode": "50190" },
                ]
            },
            {
                "ID": 5012,
                "Name": "สันป่าตอง",
                "SubDistricts": [
                    { "ID": 501201, "Name": "ยุหว่า", "ZipCode": "50120" },
                    { "ID": 501202, "Name": "สันกลาง", "ZipCode": "50120" },
                    { "ID": 501203, "Name": "ท่าวังพร้าว", "ZipCode": "50120" },
                    { "ID": 501204, "Name": "มะขามหลวง", "ZipCode": "50120" },
                    { "ID": 501205, "Name": "แม่ก๊า", "ZipCode": "50120" },
                    { "ID": 501206, "Name": "บ้านแม", "ZipCode": "50120" },
                    { "ID": 501207, "Name": "บ้านกลาง", "ZipCode": "50120" },
                    { "ID": 501208, "Name": "ทุ่งสะโตก", "ZipCode": "50120" },
                    { "ID": 501210, "Name": "ทุ่งต้อม", "ZipCode": "50120" },
                    { "ID": 501214, "Name": "น้ำบ่อหลวง", "ZipCode": "50120" },
                    { "ID": 501215, "Name": "มะขุนหวาน", "ZipCode": "50120" },
                ]
            },
            {
                "ID": 5013,
                "Name": "สันกำแพง",
                "SubDistricts": [
                    { "ID": 501302, "Name": "ทรายมูล", "ZipCode": "50130" },
                    { "ID": 501303, "Name": "ร้องวัวแดง", "ZipCode": "50130" },
                    { "ID": 501304, "Name": "บวกค้าง", "ZipCode": "50130" },
                    { "ID": 501305, "Name": "แช่ช้าง", "ZipCode": "50130" },
                    { "ID": 501306, "Name": "ออนใต้", "ZipCode": "50130" },
                    { "ID": 501310, "Name": "แม่ปูคา", "ZipCode": "50130" },
                    { "ID": 501311, "Name": "ห้วยทราย", "ZipCode": "50130" },
                    { "ID": 501312, "Name": "ต้นเปา", "ZipCode": "50130" },
                    { "ID": 501313, "Name": "สันกลาง", "ZipCode": "50130" },
                ]
            },
            {
                "ID": 5014,
                "Name": "สันทราย",
                "SubDistricts": [
                    { "ID": 501401, "Name": "สันทรายหลวง", "ZipCode": "50210" },
                    { "ID": 501402, "Name": "สันทรายน้อย", "ZipCode": "50210" },
                    { "ID": 501403, "Name": "สันพระเนตร", "ZipCode": "50210" },
                    { "ID": 501404, "Name": "สันนาเม็ง", "ZipCode": "50210" },
                    { "ID": 501405, "Name": "สันป่าเปา", "ZipCode": "50210" },
                    { "ID": 501406, "Name": "หนองแหย่ง", "ZipCode": "50210" },
                    { "ID": 501407, "Name": "หนองจ๊อม", "ZipCode": "50210" },
                    { "ID": 501408, "Name": "หนองหาร", "ZipCode": "50290" },
                    { "ID": 501409, "Name": "แม่แฝก", "ZipCode": "50290" },
                    { "ID": 501410, "Name": "แม่แฝกใหม่", "ZipCode": "50290" },
                    { "ID": 501411, "Name": "เมืองเล็น", "ZipCode": "50210" },
                    { "ID": 501412, "Name": "ป่าไผ่", "ZipCode": "50210" },
                ]
            },
            {
                "ID": 5015,
                "Name": "หางดง",
                "SubDistricts": [
                    { "ID": 501501, "Name": "หางดง", "ZipCode": "50230" },
                    { "ID": 501502, "Name": "หนองแก๋ว", "ZipCode": "50230" },
                    { "ID": 501503, "Name": "หารแก้ว", "ZipCode": "50230" },
                    { "ID": 501504, "Name": "หนองตอง", "ZipCode": "50340" },
                    { "ID": 501505, "Name": "ขุนคง", "ZipCode": "50230" },
                    { "ID": 501506, "Name": "สบแม่ข่า", "ZipCode": "50230" },
                    { "ID": 501507, "Name": "บ้านแหวน", "ZipCode": "50230" },
                    { "ID": 501508, "Name": "สันผักหวาน", "ZipCode": "50230" },
                    { "ID": 501509, "Name": "หนองควาย", "ZipCode": "50230" },
                    { "ID": 501510, "Name": "บ้านปง", "ZipCode": "50230" },
                    { "ID": 501511, "Name": "น้ำแพร่", "ZipCode": "50230" },
                ]
            },
            {
                "ID": 5016,
                "Name": "ฮอด",
                "SubDistricts": [
                    { "ID": 501601, "Name": "หางดง", "ZipCode": "50240" },
                    { "ID": 501602, "Name": "ฮอด", "ZipCode": "50240" },
                    { "ID": 501603, "Name": "บ้านตาล", "ZipCode": "50240" },
                    { "ID": 501604, "Name": "บ่อหลวง", "ZipCode": "50240" },
                    { "ID": 501605, "Name": "บ่อสลี", "ZipCode": "50240" },
                    { "ID": 501606, "Name": "นาคอเรือ", "ZipCode": "50240" },
                ]
            },
            {
                "ID": 5017,
                "Name": "ดอยเต่า",
                "SubDistricts": [
                    { "ID": 501701, "Name": "ดอยเต่า", "ZipCode": "50260" },
                    { "ID": 501702, "Name": "ท่าเดื่อ", "ZipCode": "50260" },
                    { "ID": 501703, "Name": "มืดกา", "ZipCode": "50260" },
                    { "ID": 501704, "Name": "บ้านแอ่น", "ZipCode": "50260" },
                    { "ID": 501705, "Name": "บงตัน", "ZipCode": "50260" },
                    { "ID": 501706, "Name": "โปงทุ่ง", "ZipCode": "50260" },
                ]
            },
            {
                "ID": 5018,
                "Name": "อมก๋อย",
                "SubDistricts": [
                    { "ID": 501801, "Name": "อมก๋อย", "ZipCode": "50310" },
                    { "ID": 501802, "Name": "ยางเปียง", "ZipCode": "50310" },
                    { "ID": 501803, "Name": "แม่ตื่น", "ZipCode": "50310" },
                    { "ID": 501804, "Name": "ม่อนจอง", "ZipCode": "50310" },
                    { "ID": 501805, "Name": "สบโขง", "ZipCode": "50310" },
                    { "ID": 501806, "Name": "นาเกียน", "ZipCode": "50310" },
                ]
            },
            {
                "ID": 5019,
                "Name": "สารภี",
                "SubDistricts": [
                    { "ID": 501901, "Name": "ยางเนิ้ง", "ZipCode": "50140" },
                    { "ID": 501902, "Name": "สารภี", "ZipCode": "50140" },
                    { "ID": 501903, "Name": "ชมภู", "ZipCode": "50140" },
                    { "ID": 501904, "Name": "ไชยสถาน", "ZipCode": "50140" },
                    { "ID": 501905, "Name": "ขัวมุง", "ZipCode": "50140" },
                    { "ID": 501906, "Name": "หนองแฝก", "ZipCode": "50140" },
                    { "ID": 501907, "Name": "หนองผึ้ง", "ZipCode": "50140" },
                    { "ID": 501908, "Name": "ท่ากว้าง", "ZipCode": "50140" },
                    { "ID": 501909, "Name": "ดอนแก้ว", "ZipCode": "50140" },
                    { "ID": 501910, "Name": "ท่าวังตาล", "ZipCode": "50140" },
                    { "ID": 501911, "Name": "สันทราย", "ZipCode": "50140" },
                    { "ID": 501912, "Name": "ป่าบง", "ZipCode": "50140" },
                ]
            },
            {
                "ID": 5020,
                "Name": "เวียงแหง",
                "SubDistricts": [
                    { "ID": 502001, "Name": "เมืองแหง", "ZipCode": "50350" },
                    { "ID": 502002, "Name": "เปียงหลวง", "ZipCode": "50350" },
                    { "ID": 502003, "Name": "แสนไห", "ZipCode": "50350" },
                ]
            },
            {
                "ID": 5021,
                "Name": "ไชยปราการ",
                "SubDistricts": [
                    { "ID": 502101, "Name": "ปงตำ", "ZipCode": "50320" },
                    { "ID": 502102, "Name": "ศรีดงเย็น", "ZipCode": "50320" },
                    { "ID": 502103, "Name": "แม่ทะลบ", "ZipCode": "50320" },
                    { "ID": 502104, "Name": "หนองบัว", "ZipCode": "50320" },
                ]
            },
            {
                "ID": 5022,
                "Name": "แม่วาง",
                "SubDistricts": [
                    { "ID": 502201, "Name": "บ้านกาด", "ZipCode": "50360" },
                    { "ID": 502202, "Name": "ทุ่งปี้", "ZipCode": "50360" },
                    { "ID": 502203, "Name": "ทุ่งรวงทอง", "ZipCode": "50360" },
                    { "ID": 502204, "Name": "แม่วิน", "ZipCode": "50360" },
                    { "ID": 502205, "Name": "ดอนเปา", "ZipCode": "50360" },
                ]
            },
            {
                "ID": 5023,
                "Name": "แม่ออน",
                "SubDistricts": [
                    { "ID": 502301, "Name": "ออนเหนือ", "ZipCode": "50130" },
                    { "ID": 502302, "Name": "ออนกลาง", "ZipCode": "50130" },
                    { "ID": 502303, "Name": "บ้านสหกรณ์", "ZipCode": "50130" },
                    { "ID": 502304, "Name": "ห้วยแก้ว", "ZipCode": "50130" },
                    { "ID": 502305, "Name": "แม่ทา", "ZipCode": "50130" },
                    { "ID": 502306, "Name": "ทาเหนือ", "ZipCode": "50130" },
                ]
            },
            {
                "ID": 5024,
                "Name": "ดอยหล่อ",
                "SubDistricts": [
                    { "ID": 502401, "Name": "ดอยหล่อ", "ZipCode": "50160" },
                    { "ID": 502402, "Name": "สองแคว", "ZipCode": "50160" },
                    { "ID": 502403, "Name": "ยางคราม", "ZipCode": "50160" },
                    { "ID": 502404, "Name": "สันติสุข", "ZipCode": "50160" },
                ]
            }
        ]
    },
    { "Code": "LPN", "ISO": "TH-51", "Name": "จังหวัดลำพูน" },
    { "Code": "LPG", "ISO": "TH-52", "Name": "จังหวัดลำปาง" },
    { "Code": "UTD", "ISO": "TH-53", "Name": "จังหวัดอุตรดิตถ์" },
    { "Code": "PRE", "ISO": "TH-54", "Name": "จังหวัดแพร่" },
    { "Code": "NAN", "ISO": "TH-55", "Name": "จังหวัดน่าน" },
    { "Code": "PYO", "ISO": "TH-56", "Name": "จังหวัดพะเยา" },
    {
        "Code": "CRI",
        "ISO": "TH-57",
        "Name": "จังหวัดเชียงราย",
        "Districts": [
            {
                "ID": 5701,
                "Name": "เมืองเชียงราย",
                "SubDistricts": [
                    { "ID": 570101, "Name": "เวียง", "ZipCode": "57000" },
                    { "ID": 570102, "Name": "รอบเวียง", "ZipCode": "57000" },
                    { "ID": 570103, "Name": "บ้านดู่", "ZipCode": "57100" },
                    { "ID": 570104, "Name": "นางแล", "ZipCode": "57100" },
                    { "ID": 570105, "Name": "แม่ข้าวต้ม", "ZipCode": "57100" },
                    { "ID": 570106, "Name": "แม่ยาว", "ZipCode": "57100" },
                    { "ID": 570107, "Name": "สันทราย", "ZipCode": "57000" },
                    { "ID": 570111, "Name": "แม่กรณ์", "ZipCode": "57000" },
                    { "ID": 570112, "Name": "ห้วยชมภู", "ZipCode": "57000" },
                    { "ID": 570113, "Name": "ห้วยสัก", "ZipCode": "57000" },
                    { "ID": 570114, "Name": "ริมกก", "ZipCode": "57100" },
                    { "ID": 570115, "Name": "ดอยลาน", "ZipCode": "57000" },
                    { "ID": 570116, "Name": "ป่าอ้อดอนชัย", "ZipCode": "57000" },
                    { "ID": 570118, "Name": "ท่าสาย", "ZipCode": "57000" },
                    { "ID": 570120, "Name": "ดอยฮาง", "ZipCode": "57000" },
                    { "ID": 570121, "Name": "ท่าสุด", "ZipCode": "57100" },
                ]
            },
            {
                "ID": 5702,
                "Name": "เวียงชัย",
                "SubDistricts": [
                    { "ID": 570202, "Name": "เวียงชัย", "ZipCode": "57210" },
                    { "ID": 570203, "Name": "ผางาม", "ZipCode": "57210" },
                    { "ID": 570204, "Name": "เวียงเหนือ", "ZipCode": "57210" },
                    { "ID": 570206, "Name": "ดอนศิลา", "ZipCode": "57210" },
                    { "ID": 570208, "Name": "เมืองชุม", "ZipCode": "57210" },
                ]
            },
            {
                "ID": 5703,
                "Name": "เชียงของ",
                "SubDistricts": [
                    { "ID": 570301, "Name": "เวียง", "ZipCode": "57140" },
                    { "ID": 570302, "Name": "สถาน", "ZipCode": "57140" },
                    { "ID": 570303, "Name": "ครึ่ง", "ZipCode": "57140" },
                    { "ID": 570304, "Name": "บุญเรือง", "ZipCode": "57140" },
                    { "ID": 570305, "Name": "ห้วยซ้อ", "ZipCode": "57140" },
                    { "ID": 570308, "Name": "ศรีดอนชัย", "ZipCode": "57230" },
                    { "ID": 570310, "Name": "ริมโขง", "ZipCode": "57140" },
                ]
            },
            {
                "ID": 5704,
                "Name": "เทิง",
                "SubDistricts": [
                    { "ID": 570401, "Name": "เวียง", "ZipCode": "57160" },
                    { "ID": 570402, "Name": "งิ้ว", "ZipCode": "57160" },
                    { "ID": 570403, "Name": "ปล้อง", "ZipCode": "57230" },
                    { "ID": 570404, "Name": "แม่ลอย", "ZipCode": "57230" },
                    { "ID": 570405, "Name": "เชียงเคี่ยน", "ZipCode": "57230" },
                    { "ID": 570409, "Name": "ตับเต่า", "ZipCode": "57160" },
                    { "ID": 570410, "Name": "หงาว", "ZipCode": "57160" },
                    { "ID": 570411, "Name": "สันทรายงาม", "ZipCode": "57160" },
                    { "ID": 570412, "Name": "ศรีดอนไชย", "ZipCode": "57160" },
                    { "ID": 570413, "Name": "หนองแรด", "ZipCode": "57160" },
                ]
            },
            {
                "ID": 5705,
                "Name": "พาน",
                "SubDistricts": [
                    { "ID": 570501, "Name": "สันมะเค็ด", "ZipCode": "57120" },
                    { "ID": 570502, "Name": "แม่อ้อ", "ZipCode": "57120" },
                    { "ID": 570503, "Name": "ธารทอง", "ZipCode": "57250" },
                    { "ID": 570504, "Name": "สันติสุข", "ZipCode": "57120" },
                    { "ID": 570505, "Name": "ดอยงาม", "ZipCode": "57120" },
                    { "ID": 570506, "Name": "หัวง้ม", "ZipCode": "57120" },
                    { "ID": 570507, "Name": "เจริญเมือง", "ZipCode": "57120" },
                    { "ID": 570508, "Name": "ป่าหุ่ง", "ZipCode": "57120" },
                    { "ID": 570509, "Name": "ม่วงคำ", "ZipCode": "57120" },
                    { "ID": 570510, "Name": "ทรายขาว", "ZipCode": "57120" },
                    { "ID": 570511, "Name": "สันกลาง", "ZipCode": "57120" },
                    { "ID": 570512, "Name": "แม่เย็น", "ZipCode": "57280" },
                    { "ID": 570513, "Name": "เมืองพาน", "ZipCode": "57120" },
                    { "ID": 570514, "Name": "ทานตะวัน", "ZipCode": "57280" },
                    { "ID": 570515, "Name": "เวียงห้าว", "ZipCode": "57120" },
                ]
            },
            {
                "ID": 5706,
                "Name": "ป่าแดด",
                "SubDistricts": [
                    { "ID": 570601, "Name": "ป่าแดด", "ZipCode": "57190" },
                    { "ID": 570602, "Name": "ป่าแงะ", "ZipCode": "57190" },
                    { "ID": 570603, "Name": "สันมะค่า", "ZipCode": "57190" },
                    { "ID": 570605, "Name": "โรงช้าง", "ZipCode": "57190" },
                    { "ID": 570606, "Name": "ศรีโพธิ์เงิน", "ZipCode": "57190" },
                ]
            },
            {
                "ID": 5707,
                "Name": "แม่จัน",
                "SubDistricts": [
                    { "ID": 570701, "Name": "แม่จัน", "ZipCode": "57110" },
                    { "ID": 570702, "Name": "จันจว้า", "ZipCode": "57270" },
                    { "ID": 570703, "Name": "แม่คำ", "ZipCode": "57240" },
                    { "ID": 570704, "Name": "ป่าซาง", "ZipCode": "57110" },
                    { "ID": 570705, "Name": "สันทราย", "ZipCode": "57110" },
                    { "ID": 570706, "Name": "ท่าข้าวเปลือก", "ZipCode": "57110" },
                    { "ID": 570708, "Name": "ป่าตึง", "ZipCode": "57110" },
                    { "ID": 570710, "Name": "แม่ไร่", "ZipCode": "57240" },
                    { "ID": 570711, "Name": "ศรีค้ำ", "ZipCode": "57110" },
                    { "ID": 570712, "Name": "จันจว้าใต้", "ZipCode": "57270" },
                    { "ID": 570713, "Name": "จอมสวรรค์", "ZipCode": "57110" },
                ]
            },
            {
                "ID": 5708,
                "Name": "เชียงแสน",
                "SubDistricts": [
                    { "ID": 570801, "Name": "เวียง", "ZipCode": "57150" },
                    { "ID": 570802, "Name": "ป่าสัก", "ZipCode": "57150" },
                    { "ID": 570803, "Name": "บ้านแซว", "ZipCode": "57150" },
                    { "ID": 570804, "Name": "ศรีดอนมูล", "ZipCode": "57150" },
                    { "ID": 570805, "Name": "แม่เงิน", "ZipCode": "57150" },
                    { "ID": 570806, "Name": "โยนก", "ZipCode": "57150" },
                ]
            },
            {
                "ID": 5709,
                "Name": "แม่สาย",
                "SubDistricts": [
                    { "ID": 570901, "Name": "แม่สาย", "ZipCode": "57130" },
                    { "ID": 570902, "Name": "ห้วยไคร้", "ZipCode": "57220" },
                    { "ID": 570903, "Name": "เกาะช้าง", "ZipCode": "57130" },
                    { "ID": 570904, "Name": "โป่งผา", "ZipCode": "57130" },
                    { "ID": 570905, "Name": "ศรีเมืองชุม", "ZipCode": "57130" },
                    { "ID": 570906, "Name": "เวียงพางคำ", "ZipCode": "57130" },
                    { "ID": 570908, "Name": "บ้านด้าย", "ZipCode": "57220" },
                    { "ID": 570909, "Name": "โป่งงาม", "ZipCode": "57130" },
                ]
            },
            {
                "ID": 5710,
                "Name": "แม่สรวย",
                "SubDistricts": [
                    { "ID": 571001, "Name": "แม่สรวย", "ZipCode": "57180" },
                    { "ID": 571002, "Name": "ป่าแดด", "ZipCode": "57180" },
                    { "ID": 571003, "Name": "แม่พริก", "ZipCode": "57180" },
                    { "ID": 571004, "Name": "ศรีถ้อย", "ZipCode": "57180" },
                    { "ID": 571005, "Name": "ท่าก๊อ", "ZipCode": "57180" },
                    { "ID": 571006, "Name": "วาวี", "ZipCode": "57180" },
                    { "ID": 571007, "Name": "เจดีย์หลวง", "ZipCode": "57180" },
                ]
            },
            {
                "ID": 5711,
                "Name": "เวียงป่าเป้า",
                "SubDistricts": [
                    { "ID": 571101, "Name": "สันสลี", "ZipCode": "57170" },
                    { "ID": 571102, "Name": "เวียง", "ZipCode": "57170" },
                    { "ID": 571103, "Name": "บ้านโป่ง", "ZipCode": "57170" },
                    { "ID": 571104, "Name": "ป่างิ้ว", "ZipCode": "57170" },
                    { "ID": 571105, "Name": "เวียงกาหลง", "ZipCode": "57260" },
                    { "ID": 571106, "Name": "แม่เจดีย์", "ZipCode": "57260" },
                    { "ID": 571107, "Name": "แม่เจดีย์ใหม่", "ZipCode": "57260" },
                ]
            },
            {
                "ID": 5712,
                "Name": "พญาเม็งราย",
                "SubDistricts": [
                    { "ID": 571201, "Name": "แม่เปา", "ZipCode": "57290" },
                    { "ID": 571202, "Name": "แม่ต๋ำ", "ZipCode": "57290" },
                    { "ID": 571203, "Name": "ไม้ยา", "ZipCode": "57290" },
                    { "ID": 571204, "Name": "เม็งราย", "ZipCode": "57290" },
                    { "ID": 571205, "Name": "ตาดควัน", "ZipCode": "57290" },
                ]
            },
            {
                "ID": 5713,
                "Name": "เวียงแก่น",
                "SubDistricts": [
                    { "ID": 571301, "Name": "ม่วงยาย", "ZipCode": "57310" },
                    { "ID": 571302, "Name": "ปอ", "ZipCode": "57310" },
                    { "ID": 571303, "Name": "หล่ายงาว", "ZipCode": "57310" },
                    { "ID": 571304, "Name": "ท่าข้าม", "ZipCode": "57310" },
                ]
            },
            {
                "ID": 5714,
                "Name": "ขุนตาล",
                "SubDistricts": [
                    { "ID": 571401, "Name": "ต้า", "ZipCode": "57340" },
                    { "ID": 571402, "Name": "ป่าตาล", "ZipCode": "57340" },
                    { "ID": 571403, "Name": "ยางฮอม", "ZipCode": "57340" },
                ]
            },
            {
                "ID": 5715,
                "Name": "แม่ฟ้าหลวง",
                "SubDistricts": [
                    { "ID": 571501, "Name": "เทอดไทย", "ZipCode": "57240" },
                    { "ID": 571502, "Name": "แม่สลองใน", "ZipCode": "57110" },
                    { "ID": 571503, "Name": "แม่สลองนอก", "ZipCode": "57110" },
                    { "ID": 571504, "Name": "แม่ฟ้าหลวง", "ZipCode": "57240" },
                ]
            },
            {
                "ID": 5716,
                "Name": "แม่ลาว",
                "SubDistricts": [
                    { "ID": 571601, "Name": "ดงมะดะ", "ZipCode": "57250" },
                    { "ID": 571602, "Name": "จอมหมอกแก้ว", "ZipCode": "57250" },
                    { "ID": 571603, "Name": "บัวสลี", "ZipCode": "57250" },
                    { "ID": 571604, "Name": "ป่าก่อดำ", "ZipCode": "57250" },
                    { "ID": 571605, "Name": "โป่งแพร่", "ZipCode": "57000" },
                ]
            },
            {
                "ID": 5717,
                "Name": "เวียงเชียงรุ้ง",
                "SubDistricts": [
                    { "ID": 571701, "Name": "ทุ่งก่อ", "ZipCode": "57210" },
                    { "ID": 571702, "Name": "ดงมหาวัน", "ZipCode": "57210" },
                    { "ID": 571703, "Name": "ป่าซาง", "ZipCode": "57210" },
                ]
            },
            {
                "ID": 5718,
                "Name": "ดอยหลวง",
                "SubDistricts": [
                    { "ID": 571801, "Name": "ปงน้อย", "ZipCode": "57110" },
                    { "ID": 571802, "Name": "โชคชัย", "ZipCode": "57110" },
                    { "ID": 571803, "Name": "หนองป่าก่อ", "ZipCode": "57110" },
                ]
            },
        ]
    },
    { "Code": "MSN", "ISO": "TH-58", "Name": "จังหวัดแม่ฮ่องสอน" },
    { "Code": "NSN", "ISO": "TH-60", "Name": "จังหวัดนครสวรรค์" },
    { "Code": "UTI", "ISO": "TH-61", "Name": "จังหวัดอุทัยธานี" },
    { "Code": "KPT", "ISO": "TH-62", "Name": "จังหวัดกำแพงเพชร" },
    { "Code": "TAK", "ISO": "TH-63", "Name": "จังหวัดตาก" },
    { "Code": "STI", "ISO": "TH-64", "Name": "จังหวัดสุโขทัย" },
    { "Code": "PLK", "ISO": "TH-65", "Name": "จังหวัดพิษณุโลก" },
    { "Code": "PCT", "ISO": "TH-66", "Name": "จังหวัดพิจิตร" },
    {
        "Code": "PNB",
        "ISO": "TH-67",
        "Name": "จังหวัดเพชรบูรณ์",
        "Districts": [
            {
                "ID": 6701,
                "Name": "เมืองเพชรบูรณ์",
                "SubDistricts": [
                    { "ID": 670101, "Name": "ในเมือง", "ZipCode": "67000" },
                    { "ID": 670102, "Name": "ตะเบาะ", "ZipCode": "67000" },
                    { "ID": 670103, "Name": "บ้านโตก", "ZipCode": "67000" },
                    { "ID": 670104, "Name": "สะเดียง", "ZipCode": "67000" },
                    { "ID": 670105, "Name": "ป่าเลา", "ZipCode": "67000" },
                    { "ID": 670106, "Name": "นางั่ว", "ZipCode": "67000" },
                    { "ID": 670107, "Name": "ท่าพล", "ZipCode": "67250" },
                    { "ID": 670108, "Name": "ดงมูลเหล็ก", "ZipCode": "67000" },
                    { "ID": 670109, "Name": "บ้านโคก", "ZipCode": "67000" },
                    { "ID": 670110, "Name": "ชอนไพร", "ZipCode": "67000" },
                    { "ID": 670111, "Name": "นาป่า", "ZipCode": "67000" },
                    { "ID": 670112, "Name": "นายม", "ZipCode": "67210" },
                    { "ID": 670113, "Name": "วังชมภู", "ZipCode": "67210" },
                    { "ID": 670114, "Name": "น้ำร้อน", "ZipCode": "67000" },
                    { "ID": 670115, "Name": "ห้วยสะแก", "ZipCode": "67210" },
                    { "ID": 670116, "Name": "ห้วยใหญ่", "ZipCode": "67000" },
                    { "ID": 670117, "Name": "ระวิง", "ZipCode": "67210" },
                ]
            },
            {
                "ID": 6702,
                "Name": "ชนแดน",
                "SubDistricts": [
                    { "ID": 670201, "Name": "ชนแดน", "ZipCode": "67150" },
                    { "ID": 670202, "Name": "ดงขุย", "ZipCode": "67190" },
                    { "ID": 670203, "Name": "ท่าข้าม", "ZipCode": "67150" },
                    { "ID": 670204, "Name": "พุทธบาท", "ZipCode": "67150" },
                    { "ID": 670205, "Name": "ลาดแค", "ZipCode": "67150" },
                    { "ID": 670206, "Name": "บ้านกล้วย", "ZipCode": "67190" },
                    { "ID": 670208, "Name": "ซับพุทรา", "ZipCode": "67150" },
                    { "ID": 670209, "Name": "ตะกุดไร", "ZipCode": "67190" },
                    { "ID": 670210, "Name": "ศาลาลาย", "ZipCode": "67150" },
                ]
            },
            {
                "ID": 6703,
                "Name": "หล่มสัก",
                "SubDistricts": [
                    { "ID": 670301, "Name": "หล่มสัก", "ZipCode": "67110" },
                    { "ID": 670302, "Name": "วัดป่า", "ZipCode": "67110" },
                    { "ID": 670303, "Name": "ตาลเดี่ยว", "ZipCode": "67110" },
                    { "ID": 670304, "Name": "ฝายนาแซง", "ZipCode": "67110" },
                    { "ID": 670305, "Name": "หนองสว่าง", "ZipCode": "67110" },
                    { "ID": 670306, "Name": "น้ำเฮี้ย", "ZipCode": "67110" },
                    { "ID": 670307, "Name": "สักหลง", "ZipCode": "67110" },
                    { "ID": 670308, "Name": "ท่าอิบุญ", "ZipCode": "67110" },
                    { "ID": 670309, "Name": "บ้านโสก", "ZipCode": "67110" },
                    { "ID": 670310, "Name": "บ้านติ้ว", "ZipCode": "67110" },
                    { "ID": 670311, "Name": "ห้วยไร่", "ZipCode": "67110" },
                    { "ID": 670312, "Name": "น้ำก้อ", "ZipCode": "67110" },
                    { "ID": 670313, "Name": "ปากช่อง", "ZipCode": "67110" },
                    { "ID": 670314, "Name": "น้ำชุน", "ZipCode": "67110" },
                    { "ID": 670315, "Name": "หนองไขว่", "ZipCode": "67110" },
                    { "ID": 670316, "Name": "ลานบ่า", "ZipCode": "67110" },
                    { "ID": 670317, "Name": "บุ่งคล้า", "ZipCode": "67110" },
                    { "ID": 670318, "Name": "บุ่งน้ำเต้า", "ZipCode": "67110" },
                    { "ID": 670319, "Name": "บ้านกลาง", "ZipCode": "67110" },
                    { "ID": 670320, "Name": "ช้างตะลูด", "ZipCode": "67110" },
                    { "ID": 670321, "Name": "บ้านไร่", "ZipCode": "67110" },
                    { "ID": 670322, "Name": "ปากดุก", "ZipCode": "67110" },
                    { "ID": 670323, "Name": "บ้านหวาย", "ZipCode": "67110" },
                ]
            },
            {
                "ID": 6704,
                "Name": "หล่มเก่า",
                "SubDistricts": [
                    { "ID": 670401, "Name": "หล่มเก่า", "ZipCode": "67120" },
                    { "ID": 670402, "Name": "นาซำ", "ZipCode": "67120" },
                    { "ID": 670403, "Name": "หินฮาว", "ZipCode": "67120" },
                    { "ID": 670404, "Name": "บ้านเนิน", "ZipCode": "67120" },
                    { "ID": 670405, "Name": "ศิลา", "ZipCode": "67120" },
                    { "ID": 670406, "Name": "นาแซง", "ZipCode": "67120" },
                    { "ID": 670407, "Name": "วังบาล", "ZipCode": "67120" },
                    { "ID": 670408, "Name": "นาเกาะ", "ZipCode": "67120" },
                    { "ID": 670409, "Name": "ตาดกลอย", "ZipCode": "67120" },
                ]
            },
            {
                "ID": 6705,
                "Name": "วิเชียรบุรี",
                "SubDistricts": [
                    { "ID": 670501, "Name": "ท่าโรง", "ZipCode": "67130" },
                    { "ID": 670502, "Name": "สระประดู่", "ZipCode": "67130" },
                    { "ID": 670503, "Name": "สามแยก", "ZipCode": "67130" },
                    { "ID": 670504, "Name": "โคกปรง", "ZipCode": "67130" },
                    { "ID": 670505, "Name": "น้ำร้อน", "ZipCode": "67130" },
                    { "ID": 670506, "Name": "บ่อรัง", "ZipCode": "67130" },
                    { "ID": 670507, "Name": "พุเตย", "ZipCode": "67180" },
                    { "ID": 670508, "Name": "พุขาม", "ZipCode": "67180" },
                    { "ID": 670509, "Name": "ภูน้ำหยด", "ZipCode": "67180" },
                    { "ID": 670510, "Name": "ซับสมบูรณ์", "ZipCode": "67180" },
                    { "ID": 670511, "Name": "บึงกระจับ", "ZipCode": "67130" },
                    { "ID": 670512, "Name": "วังใหญ่", "ZipCode": "67180" },
                    { "ID": 670513, "Name": "ยางสาว", "ZipCode": "67130" },
                    { "ID": 670514, "Name": "ซับน้อย", "ZipCode": "67180" },
                ]
            },
            {
                "ID": 6706,
                "Name": "ศรีเทพ",
                "SubDistricts": [
                    { "ID": 670601, "Name": "ศรีเทพ", "ZipCode": "67170" },
                    { "ID": 670602, "Name": "สระกรวด", "ZipCode": "67170" },
                    { "ID": 670603, "Name": "คลองกระจัง", "ZipCode": "67170" },
                    { "ID": 670604, "Name": "นาสนุ่น", "ZipCode": "67170" },
                    { "ID": 670605, "Name": "โคกสะอาด", "ZipCode": "67170" },
                    { "ID": 670606, "Name": "หนองย่างทอย", "ZipCode": "67170" },
                    { "ID": 670607, "Name": "ประดู่งาม", "ZipCode": "67170" },
                ]
            },
            {
                "ID": 6707,
                "Name": "หนองไผ่",
                "SubDistricts": [
                    { "ID": 670701, "Name": "กองทูล", "ZipCode": "67140" },
                    { "ID": 670702, "Name": "นาเฉลียง", "ZipCode": "67220" },
                    { "ID": 670703, "Name": "บ้านโภชน์", "ZipCode": "67140" },
                    { "ID": 670704, "Name": "ท่าแดง", "ZipCode": "67140" },
                    { "ID": 670705, "Name": "เพชรละคร", "ZipCode": "67140" },
                    { "ID": 670706, "Name": "บ่อไทย", "ZipCode": "67140" },
                    { "ID": 670707, "Name": "ห้วยโป่ง", "ZipCode": "67220" },
                    { "ID": 670708, "Name": "วังท่าดี", "ZipCode": "67140" },
                    { "ID": 670709, "Name": "บัววัฒนา", "ZipCode": "67140" },
                    { "ID": 670710, "Name": "หนองไผ่", "ZipCode": "67140" },
                    { "ID": 670711, "Name": "วังโบสถ์", "ZipCode": "67140" },
                    { "ID": 670712, "Name": "ยางงาม", "ZipCode": "67220" },
                    { "ID": 670713, "Name": "ท่าด้วง", "ZipCode": "67140" },
                ]
            },
            {
                "ID": 6708,
                "Name": "บึงสามพัน",
                "SubDistricts": [
                    { "ID": 670801, "Name": "ซับสมอทอด", "ZipCode": "67160" },
                    { "ID": 670802, "Name": "ซับไม้แดง", "ZipCode": "67160" },
                    { "ID": 670803, "Name": "หนองแจง", "ZipCode": "67160" },
                    { "ID": 670804, "Name": "กันจุ", "ZipCode": "67160" },
                    { "ID": 670805, "Name": "วังพิกุล", "ZipCode": "67230" },
                    { "ID": 670806, "Name": "พญาวัง", "ZipCode": "67160" },
                    { "ID": 670807, "Name": "ศรีมงคล", "ZipCode": "67160" },
                    { "ID": 670808, "Name": "สระแก้ว", "ZipCode": "67160" },
                    { "ID": 670809, "Name": "บึงสามพัน", "ZipCode": "67160" },
                ]
            },
            {
                "ID": 6709,
                "Name": "น้ำหนาว",
                "SubDistricts": [
                    { "ID": 670901, "Name": "น้ำหนาว", "ZipCode": "67260" },
                    { "ID": 670902, "Name": "หลักด่าน", "ZipCode": "67260" },
                    { "ID": 670903, "Name": "วังกวาง", "ZipCode": "67260" },
                    { "ID": 670904, "Name": "โคกมน", "ZipCode": "67260" },
                ]
            },
            {
                "ID": 6710,
                "Name": "วังโป่ง",
                "SubDistricts": [
                    { "ID": 671001, "Name": "วังโป่ง", "ZipCode": "67240" },
                    { "ID": 671002, "Name": "ท้ายดง", "ZipCode": "67240" },
                    { "ID": 671003, "Name": "ซับเปิบ", "ZipCode": "67240" },
                    { "ID": 671004, "Name": "วังหิน", "ZipCode": "67240" },
                    { "ID": 671005, "Name": "วังศาล", "ZipCode": "67240" },
                ]
            },
            {
                "ID": 6711,
                "Name": "เขาค้อ",
                "SubDistricts": [
                    { "ID": 671101, "Name": "ทุ่งสมอ", "ZipCode": "67270" },
                    { "ID": 671102, "Name": "แคมป์สน", "ZipCode": "67280" },
                    { "ID": 671103, "Name": "เขาค้อ", "ZipCode": "67270" },
                    { "ID": 671104, "Name": "ริมสีม่วง", "ZipCode": "67270" },
                    { "ID": 671105, "Name": "สะเดาะพง", "ZipCode": "67270" },
                    { "ID": 671106, "Name": "หนองแม่นา", "ZipCode": "67270" },
                    { "ID": 671107, "Name": "เข็กน้อย", "ZipCode": "67280" },
                ]
            },
        ]
    },
    { "Code": "RBR", "ISO": "TH-70", "Name": "จังหวัดราชบุรี" },
    {
        "Code": "KRI",
        "ISO": "TH-71",
        "Name": "จังหวัดกาญจนบุรี",
        "Districts": [
            {
                "ID": 7101,
                "Name": "เมืองกาญจนบุรี",
                "SubDistricts": [
                    { "ID": 710101, "Name": "บ้านเหนือ", "ZipCode": "71000" },
                    { "ID": 710102, "Name": "บ้านใต้", "ZipCode": "71000" },
                    { "ID": 710103, "Name": "ปากแพรก", "ZipCode": "71000" },
                    { "ID": 710104, "Name": "ท่ามะขาม", "ZipCode": "71000" },
                    { "ID": 710105, "Name": "แก่งเสี้ยน", "ZipCode": "71000" },
                    { "ID": 710106, "Name": "หนองบัว", "ZipCode": "71190" },
                    { "ID": 710107, "Name": "ลาดหญ้า", "ZipCode": "71190" },
                    { "ID": 710108, "Name": "วังด้ง", "ZipCode": "71190" },
                    { "ID": 710109, "Name": "ช่องสะเดา", "ZipCode": "71190" },
                    { "ID": 710110, "Name": "หนองหญ้า", "ZipCode": "71000" },
                    { "ID": 710111, "Name": "เกาะสำโรง", "ZipCode": "71000" },
                    { "ID": 710113, "Name": "บ้านเก่า", "ZipCode": "71000" },
                    { "ID": 710116, "Name": "วังเย็น", "ZipCode": "71000" }
                ]
            },
            {

                "ID": 7102,
                "Name": "ไทรโยค",
                "SubDistricts": [
                    { "ID": 710201, "Name": "ลุ่มสุ่ม", "ZipCode": "71150" },
                    { "ID": 710202, "Name": "ท่าเสา", "ZipCode": "71150" },
                    { "ID": 710203, "Name": "สิงห์", "ZipCode": "71150" },
                    { "ID": 710204, "Name": "ไทรโยค", "ZipCode": "71150" },
                    { "ID": 710205, "Name": "วังกระแจะ", "ZipCode": "71150" },
                    { "ID": 710206, "Name": "ศรีมงคล", "ZipCode": "71150" },
                    { "ID": 710207, "Name": "บ้องตี้", "ZipCode": "71150" }
                ]

            },
            {
                "ID": 7103,
                "Name": "บ่อพลอย",
                "SubDistricts": [
                    { "ID": 710301, "Name": "บ่อพลอย", "ZipCode": "71160" },
                    { "ID": 710302, "Name": "หนองกุ่ม", "ZipCode": "71160" },
                    { "ID": 710303, "Name": "หนองรี", "ZipCode": "71220" },
                    { "ID": 710305, "Name": "หลุมรัง", "ZipCode": "71160" },
                    { "ID": 710308, "Name": "ช่องด่าน", "ZipCode": "71160" },
                    { "ID": 710309, "Name": "หนองกร่าง", "ZipCode": "71220" }
                ]
            },
            {

                "ID": 7104,
                "Name": "ศรีสวัสดิ์",
                "SubDistricts": [
                    { "ID": 710401, "Name": "นาสวน", "ZipCode": "71250" },
                    { "ID": 710402, "Name": "ด่านแม่แฉลบ", "ZipCode": "71250" },
                    { "ID": 710403, "Name": "หนองเป็ด", "ZipCode": "71250" },
                    { "ID": 710404, "Name": "ท่ากระดาน", "ZipCode": "71250" },
                    { "ID": 710405, "Name": "เขาโจด", "ZipCode": "71220" },
                    { "ID": 710406, "Name": "แม่กระบุง", "ZipCode": "71250" }
                ]
            },
            {

                "ID": 7105,
                "Name": "ท่ามะกา",
                "SubDistricts": [
                    { "ID": 710501, "Name": "พงตึก", "ZipCode": "71120" },
                    { "ID": 710502, "Name": "ยางม่วง", "ZipCode": "71120" },
                    { "ID": 710503, "Name": "ดอนชะเอม", "ZipCode": "71130" },
                    { "ID": 710504, "Name": "ท่าไม้", "ZipCode": "71120" },
                    { "ID": 710505, "Name": "ตะคร้ำเอน", "ZipCode": "71130" },
                    { "ID": 710506, "Name": "ท่ามะกา", "ZipCode": "71120" },
                    { "ID": 710507, "Name": "ท่าเรือ", "ZipCode": "71130" },
                    { "ID": 710508, "Name": "โคกตะบอง", "ZipCode": "71120" },
                    { "ID": 710509, "Name": "ดอนขมิ้น", "ZipCode": "71120" },
                    { "ID": 710510, "Name": "อุโลกสี่หมื่น", "ZipCode": "71130" },
                    { "ID": 710511, "Name": "เขาสามสิบหาบ", "ZipCode": "71120" },
                    { "ID": 710512, "Name": "พระแท่น", "ZipCode": "71130" },
                    { "ID": 710513, "Name": "หวายเหนียว", "ZipCode": "71120" },
                    { "ID": 710514, "Name": "แสนตอ", "ZipCode": "71130" },
                    { "ID": 710515, "Name": "สนามแย้", "ZipCode": "70190" },
                    { "ID": 710516, "Name": "ท่าเสา", "ZipCode": "71120" },
                    { "ID": 710517, "Name": "หนองลาน", "ZipCode": "71130" }
                ]
            },
            {

                "ID": 7106,
                "Name": "ท่าม่วง",
                "SubDistricts": [
                    { "ID": 710601, "Name": "ท่าม่วง", "ZipCode": "71110" },
                    { "ID": 710602, "Name": "วังขนาย", "ZipCode": "71110" },
                    { "ID": 710603, "Name": "วังศาลา", "ZipCode": "71110" },
                    { "ID": 710604, "Name": "ท่าล้อ", "ZipCode": "71110" },
                    { "ID": 710605, "Name": "หนองขาว", "ZipCode": "71110" },
                    { "ID": 710606, "Name": "ทุ่งทอง", "ZipCode": "71110" },
                    { "ID": 710607, "Name": "เขาน้อย", "ZipCode": "71110" },
                    { "ID": 710608, "Name": "ม่วงชุม", "ZipCode": "71110" },
                    { "ID": 710609, "Name": "บ้านใหม่", "ZipCode": "71110" },
                    { "ID": 710610, "Name": "พังตรุ", "ZipCode": "71110" },
                    { "ID": 710611, "Name": "ท่าตะคร้อ", "ZipCode": "71130" },
                    { "ID": 710612, "Name": "รางสาลี่", "ZipCode": "71110" },
                    { "ID": 710613, "Name": "หนองตากยา", "ZipCode": "71110" }
                ]
            },
            {

                "ID": 7107,
                "Name": "ทองผาภูมิ",
                "SubDistricts": [
                    { "ID": 710701, "Name": "ท่าขนุน", "ZipCode": "71180" },
                    { "ID": 710702, "Name": "ปิล๊อก", "ZipCode": "71180" },
                    { "ID": 710703, "Name": "หินดาด", "ZipCode": "71180" },
                    { "ID": 710704, "Name": "ลิ่นถิ่น", "ZipCode": "71180" },
                    { "ID": 710705, "Name": "ชะแล", "ZipCode": "71180" },
                    { "ID": 710706, "Name": "ห้วยเขย่ง", "ZipCode": "71180" },
                    { "ID": 710707, "Name": "สหกรณ์นิคม", "ZipCode": "71180" }
                ]
            },
            {

                "ID": 7108,
                "Name": "สังขละบุรี",
                "SubDistricts": [
                    { "ID": 710801, "Name": "หนองลู", "ZipCode": "71240" },
                    { "ID": 710802, "Name": "ปรังเผล", "ZipCode": "71240" },
                    { "ID": 710803, "Name": "ไล่โว่", "ZipCode": "71240" }
                ]
            },
            {
                "ID": 7109,
                "Name": "พนมทวน",
                "SubDistricts": [
                    { "ID": 710901, "Name": "พนมทวน", "ZipCode": "71140" },
                    { "ID": 710902, "Name": "หนองโรง", "ZipCode": "71140" },
                    { "ID": 710903, "Name": "ทุ่งสมอ", "ZipCode": "71140" },
                    { "ID": 710904, "Name": "ดอนเจดีย์", "ZipCode": "71140" },
                    { "ID": 710905, "Name": "พังตรุ", "ZipCode": "71140" },
                    { "ID": 710906, "Name": "รางหวาย", "ZipCode": "71170" },
                    { "ID": 710911, "Name": "หนองสาหร่าย", "ZipCode": "71140" },
                    { "ID": 710912, "Name": "ดอนตาเพชร", "ZipCode": "71140" }
                ]
            },
            {

                "ID": 7110,
                "Name": "เลาขวัญ",
                "SubDistricts": [
                    { "ID": 711001, "Name": "เลาขวัญ", "ZipCode": "71210" },
                    { "ID": 711002, "Name": "หนองโสน", "ZipCode": "71210" },
                    { "ID": 711003, "Name": "หนองประดู่", "ZipCode": "71210" },
                    { "ID": 711004, "Name": "หนองปลิง", "ZipCode": "71210" },
                    { "ID": 711005, "Name": "หนองนกแก้ว", "ZipCode": "71210" },
                    { "ID": 711006, "Name": "ทุ่งกระบ่ำ", "ZipCode": "71210" },
                    { "ID": 711007, "Name": "หนองฝ้าย", "ZipCode": "71210" }
                ]
            },
            {

                "ID": 7111,
                "Name": "ด่านมะขามเตี้ย",
                "SubDistricts": [
                    { "ID": 711101, "Name": "ด่านมะขามเตี้ย", "ZipCode": "71260" },
                    { "ID": 711102, "Name": "กลอนโด", "ZipCode": "71260" },
                    { "ID": 711103, "Name": "จรเข้เผือก", "ZipCode": "71260" },
                    { "ID": 711104, "Name": "หนองไผ่", "ZipCode": "71260" }
                ]
            },
            {

                "ID": 7112,
                "Name": "หนองปรือ",
                "SubDistricts": [
                    { "ID": 711201, "Name": "หนองปรือ", "ZipCode": "71220" },
                    { "ID": 711202, "Name": "หนองปลาไหล", "ZipCode": "71220" },
                    { "ID": 711203, "Name": "สมเด็จเจริญ", "ZipCode": "71220" }
                ]
            },
            {

                "ID": 7113,
                "Name": "ห้วยกระเจา",
                "SubDistricts": [
                    { "ID": 711301, "Name": "ห้วยกระเจา", "ZipCode": "71170" },
                    { "ID": 711302, "Name": "วังไผ่", "ZipCode": "71170" },
                    { "ID": 711303, "Name": "ดอนแสลบ", "ZipCode": "71170" },
                    { "ID": 711304, "Name": "สระลงเรือ", "ZipCode": "71170" }
                ]
            }
        ]
    },
    { "Code": "SPB", "ISO": "TH-72", "Name": "จังหวัดสุพรรณบุรี" },
    { "Code": "NPT", "ISO": "TH-73", "Name": "จังหวัดนครปฐม" },
    { "Code": "SKN", "ISO": "TH-74", "Name": "จังหวัดสมุทรสาคร" },
    { "Code": "SKM", "ISO": "TH-75", "Name": "จังหวัดสมุทรสงคราม" },
    {
        "Code": "PBI",
        "ISO": "TH-76",
        "Name": "จังหวัดเพชรบุรี",
        "Districts": [
            {
                "ID": 7601,
                "Name": "เมืองเพชรบุรี",
                "SubDistricts": [
                    { "ID": 760101, "Name": "ท่าราบ", "ZipCode": "76000" },
                    { "ID": 760102, "Name": "คลองกระแชง", "ZipCode": "76000" },
                    { "ID": 760103, "Name": "บางจาน", "ZipCode": "76000" },
                    { "ID": 760104, "Name": "นาพันสาม", "ZipCode": "76000" },
                    { "ID": 760105, "Name": "ธงชัย", "ZipCode": "76000" },
                    { "ID": 760106, "Name": "บ้านกุ่ม", "ZipCode": "76000" },
                    { "ID": 760107, "Name": "หนองโสน", "ZipCode": "76000" },
                    { "ID": 760108, "Name": "ไร่ส้ม", "ZipCode": "76000" },
                    { "ID": 760109, "Name": "เวียงคอย", "ZipCode": "76000" },
                    { "ID": 760110, "Name": "บางจาก", "ZipCode": "76000" },
                    { "ID": 760111, "Name": "บ้านหม้อ", "ZipCode": "76000" },
                    { "ID": 760112, "Name": "ต้นมะม่วง", "ZipCode": "76000" },
                    { "ID": 760113, "Name": "ช่องสะแก", "ZipCode": "76000" },
                    { "ID": 760114, "Name": "นาวุ้ง", "ZipCode": "76000" },
                    { "ID": 760115, "Name": "สำมะโรง", "ZipCode": "76000" },
                    { "ID": 760116, "Name": "โพพระ", "ZipCode": "76000" },
                    { "ID": 760117, "Name": "หาดเจ้าสำราญ", "ZipCode": "76100" },
                    { "ID": 760118, "Name": "หัวสะพาน", "ZipCode": "76000" },
                    { "ID": 760119, "Name": "ต้นมะพร้าว", "ZipCode": "76000" },
                    { "ID": 760120, "Name": "วังตะโก", "ZipCode": "76000" },
                    { "ID": 760121, "Name": "โพไร่หวาน", "ZipCode": "76000" },
                    { "ID": 760122, "Name": "ดอนยาง", "ZipCode": "76000" },
                    { "ID": 760123, "Name": "หนองขนาน", "ZipCode": "76000" },
                    { "ID": 760124, "Name": "หนองพลับ", "ZipCode": "76000" },
                ]
            },
            {
                "ID": 7602,
                "Name": "เขาย้อย",
                "SubDistricts": [
                    { "ID": 760201, "Name": "เขาย้อย", "ZipCode": "76140" },
                    { "ID": 760202, "Name": "สระพัง", "ZipCode": "76140" },
                    { "ID": 760203, "Name": "บางเค็ม", "ZipCode": "76140" },
                    { "ID": 760204, "Name": "ทับคาง", "ZipCode": "76140" },
                    { "ID": 760205, "Name": "หนองปลาไหล", "ZipCode": "76140" },
                    { "ID": 760206, "Name": "หนองปรง", "ZipCode": "76140" },
                    { "ID": 760207, "Name": "หนองชุมพล", "ZipCode": "76140" },
                    { "ID": 760208, "Name": "ห้วยโรง", "ZipCode": "76140" },
                    { "ID": 760209, "Name": "ห้วยท่าช้าง", "ZipCode": "76140" },
                    { "ID": 760210, "Name": "หนองชุมพลเหนือ", "ZipCode": "76140" },
                ]
            },
            {
                "ID": 7603,
                "Name": "หนองหญ้าปล้อง",
                "SubDistricts": [
                    { "ID": 760301, "Name": "หนองหญ้าปล้อง", "ZipCode": "76160" },
                    { "ID": 760302, "Name": "ยางน้ำกลัดเหนือ", "ZipCode": "76160" },
                    { "ID": 760303, "Name": "ยางน้ำกลัดใต้", "ZipCode": "76160" },
                    { "ID": 760304, "Name": "ท่าตะคร้อ", "ZipCode": "76160" },
                ]
            },
            {
                "ID": 7604,
                "Name": "ชะอำ",
                "SubDistricts": [
                    { "ID": 760401, "Name": "ชะอำ", "ZipCode": "76120" },
                    { "ID": 760402, "Name": "บางเก่า", "ZipCode": "76120" },
                    { "ID": 760403, "Name": "นายาง", "ZipCode": "76120" },
                    { "ID": 760404, "Name": "เขาใหญ่", "ZipCode": "76120" },
                    { "ID": 760405, "Name": "หนองศาลา", "ZipCode": "76120" },
                    { "ID": 760406, "Name": "ห้วยทรายเหนือ", "ZipCode": "76120" },
                    { "ID": 760407, "Name": "ไร่ใหม่พัฒนา", "ZipCode": "76120" },
                    { "ID": 760408, "Name": "สามพระยา", "ZipCode": "76120" },
                    { "ID": 760409, "Name": "ดอนขุนห้วย", "ZipCode": "76120" },
                ]
            },
            {
                "ID": 7605,
                "Name": "ท่ายาง",
                "SubDistricts": [
                    { "ID": 760501, "Name": "ท่ายาง", "ZipCode": "76130" },
                    { "ID": 760502, "Name": "ท่าคอย", "ZipCode": "76130" },
                    { "ID": 760503, "Name": "ยางหย่อง", "ZipCode": "76130" },
                    { "ID": 760504, "Name": "หนองจอก", "ZipCode": "76130" },
                    { "ID": 760505, "Name": "มาบปลาเค้า", "ZipCode": "76130" },
                    { "ID": 760506, "Name": "ท่าไม้รวก", "ZipCode": "76130" },
                    { "ID": 760507, "Name": "วังไคร้", "ZipCode": "76130" },
                    { "ID": 760511, "Name": "กลัดหลวง", "ZipCode": "76130" },
                    { "ID": 760512, "Name": "ปึกเตียน", "ZipCode": "76130" },
                    { "ID": 760513, "Name": "เขากระปุก", "ZipCode": "76130" },
                    { "ID": 760514, "Name": "ท่าแลง", "ZipCode": "76130" },
                    { "ID": 760515, "Name": "บ้านในดง", "ZipCode": "76130" },
                ]
            },
            {
                "ID": 7606,
                "Name": "บ้านลาด",
                "SubDistricts": [
                    { "ID": 760601, "Name": "บ้านลาด", "ZipCode": "76150" },
                    { "ID": 760602, "Name": "บ้านหาด", "ZipCode": "76150" },
                    { "ID": 760603, "Name": "บ้านทาน", "ZipCode": "76150" },
                    { "ID": 760604, "Name": "ตำหรุ", "ZipCode": "76150" },
                    { "ID": 760605, "Name": "สมอพลือ", "ZipCode": "76150" },
                    { "ID": 760606, "Name": "ไร่มะขาม", "ZipCode": "76150" },
                    { "ID": 760607, "Name": "ท่าเสน", "ZipCode": "76150" },
                    { "ID": 760608, "Name": "หนองกระเจ็ด", "ZipCode": "76150" },
                    { "ID": 760609, "Name": "หนองกะปุ", "ZipCode": "76150" },
                    { "ID": 760610, "Name": "ลาดโพธิ์", "ZipCode": "76150" },
                    { "ID": 760611, "Name": "สะพานไกร", "ZipCode": "76150" },
                    { "ID": 760612, "Name": "ไร่โคก", "ZipCode": "76150" },
                    { "ID": 760613, "Name": "โรงเข้", "ZipCode": "76150" },
                    { "ID": 760614, "Name": "ไร่สะท้อน", "ZipCode": "76150" },
                    { "ID": 760615, "Name": "ห้วยข้อง", "ZipCode": "76150" },
                    { "ID": 760616, "Name": "ท่าช้าง", "ZipCode": "76150" },
                    { "ID": 760617, "Name": "ถ้ำรงค์", "ZipCode": "76150" },
                    { "ID": 760618, "Name": "ห้วยลึก", "ZipCode": "76150" },
                ]
            },
            {
                "ID": 7607,
                "Name": "บ้านแหลม",
                "SubDistricts": [
                    { "ID": 760701, "Name": "บ้านแหลม", "ZipCode": "76110" },
                    { "ID": 760702, "Name": "บางขุนไทร", "ZipCode": "76110" },
                    { "ID": 760703, "Name": "ปากทะเล", "ZipCode": "76110" },
                    { "ID": 760704, "Name": "บางแก้ว", "ZipCode": "76110" },
                    { "ID": 760705, "Name": "แหลมผักเบี้ย", "ZipCode": "76100" },
                    { "ID": 760706, "Name": "บางตะบูน", "ZipCode": "76110" },
                    { "ID": 760707, "Name": "บางตะบูนออก", "ZipCode": "76110" },
                    { "ID": 760708, "Name": "บางครก", "ZipCode": "76110" },
                    { "ID": 760709, "Name": "ท่าแร้ง", "ZipCode": "76110" },
                    { "ID": 760710, "Name": "ท่าแร้งออก", "ZipCode": "76110" },
                ]
            },
            {
                "ID": 7608,
                "Name": "แก่งกระจาน",
                "SubDistricts": [
                    { "ID": 760801, "Name": "แก่งกระจาน", "ZipCode": "76170" },
                    { "ID": 760802, "Name": "สองพี่น้อง", "ZipCode": "76170" },
                    { "ID": 760803, "Name": "วังจันทร์", "ZipCode": "76170" },
                    { "ID": 760804, "Name": "ป่าเด็ง", "ZipCode": "76170" },
                    { "ID": 760805, "Name": "พุสวรรค์", "ZipCode": "76170" },
                    { "ID": 760806, "Name": "ห้วยแม่เพรียง", "ZipCode": "76170" },
                ]
            },
        ]
    },
    { "Code": "PKN", "ISO": "TH-77", "Name": "จังหวัดประจวบคีรีขันธ์" },
    { "Code": "NRT", "ISO": "TH-80", "Name": "จังหวัดนครศรีธรรมราช" },
    { "Code": "KBI", "ISO": "TH-81", "Name": "จังหวัดกระบี่" },
    { "Code": "PNA", "ISO": "TH-82", "Name": "จังหวัดพังงา" },
    { "Code": "PKT", "ISO": "TH-83", "Name": "จังหวัดภูเก็ต" },
    { "Code": "SNI", "ISO": "TH-84", "Name": "จังหวัดสุราษฎร์ธานี" },
    { "Code": "RNG", "ISO": "TH-85", "Name": "จังหวัดระนอง" },
    { "Code": "CPN", "ISO": "TH-86", "Name": "จังหวัดชุมพร" },
    { "Code": "SKA", "ISO": "TH-90", "Name": "จังหวัดสงขลา" },
    { "Code": "STN", "ISO": "TH-91", "Name": "จังหวัดสตูล" },
    { "Code": "TRG", "ISO": "TH-92", "Name": "จังหวัดตรัง" },
    { "Code": "PLG", "ISO": "TH-93", "Name": "จังหวัดพัทลุง" },
    { "Code": "PTN", "ISO": "TH-94", "Name": "จังหวัดปัตตานี" },
    { "Code": "YLA", "ISO": "TH-95", "Name": "จังหวัดยะลา" },
    { "Code": "NWT", "ISO": "TH-96", "Name": "จังหวัดนราธิวาส" }
]
